TIANMU-1 08             
1 57400U 23101B   26066.00237819  .00000346  00000+0  14775-4 0  9993
2 57400  97.2717 118.7901 0006380 134.2174 225.9592 15.29204229146020
STARLINK-31106          
1 58689U 23211Y   26068.09510549  .00000943  00000+0  43779-4 0  9999
2 58689  43.0024  88.6354 0000621 276.6960  83.3820 15.27576272122373
